{
    "links": {
        "self": "http://www.neowsapp.com/rest/v1/neo/54053920?api_key=iIulBulltgU6a56xZRHN4H3l9WmuAYTsLGpBGhQ2"
    },
    "id": "54053920",
    "neo_reference_id": "54053920",
    "name": "(2020 RK3)",
    "designation": "2020 RK3",
    "nasa_jpl_url": "http://ssd.jpl.nasa.gov/sbdb.cgi?sstr=54053920",
    "absolute_magnitude_h": 26.603,
    "estimated_diameter": {
        "kilometers": {
            "estimated_diameter_min": 0.0127044239,
            "estimated_diameter_max": 0.0284079555
        },
        "meters": {
            "estimated_diameter_min": 12.7044239137,
            "estimated_diameter_max": 28.407955486
        },
        "miles": {
            "estimated_diameter_min": 0.0078941606,
            "estimated_diameter_max": 0.0176518797
        },
        "feet": {
            "estimated_diameter_min": 41.6811821531,
            "estimated_diameter_max": 93.2019566768
        }
    },
    "is_potentially_hazardous_asteroid": false,
    "close_approach_data": [
        {
            "close_approach_date": "2020-09-06",
            "close_approach_date_full": "2020-Sep-06 04:15",
            "epoch_date_close_approach": 1599365700000,
            "relative_velocity": {
                "kilometers_per_second": "17.140743623",
                "kilometers_per_hour": "61706.6770429379",
                "miles_per_hour": "38342.1294103744"
            },
            "miss_distance": {
                "astronomical": "0.0124697324",
                "lunar": "4.8507259036",
                "kilometers": "1865445.406509988",
                "miles": "1159134.0258463144"
            },
            "orbiting_body": "Earth"
        }
    ],
    "orbital_data": {
        "orbit_id": "1",
        "orbit_determination_date": "2020-09-13 13:12:09",
        "first_observation_date": "2020-09-11",
        "last_observation_date": "2020-09-13",
        "data_arc_in_days": 2,
        "observations_used": 15,
        "orbit_uncertainty": "8",
        "minimum_orbit_intersection": ".0116612",
        "jupiter_tisserand_invariant": "3.091",
        "epoch_osculation": "2459104.5",
        "eccentricity": ".6869491674992805",
        "semi_major_axis": "2.494789541764368",
        "inclination": "2.355427397810096",
        "ascending_node_longitude": "359.651124317394",
        "orbital_period": "1439.293284591769",
        "perihelion_distance": ".7809959429634241",
        "perihelion_argument": "280.1667706844595",
        "aphelion_distance": "4.208583140565313",
        "perihelion_time": "2459057.490847281733",
        "mean_anomaly": "11.75805873601093",
        "mean_motion": ".2501227538917531",
        "equinox": "J2000",
        "orbit_class": {
            "orbit_class_type": "APO",
            "orbit_class_description": "Near-Earth asteroid orbits which cross the Earth’s orbit similar to that of 1862 Apollo",
            "orbit_class_range": "a (semi-major axis) > 1.0 AU; q (perihelion) < 1.017 AU"
        }
    },
    "is_sentry_object": false
}